STARLINK-36390          
1 67886U 26035H   26061.91668981 -.00948550  30466-3 -16577-2 0  9997
2 67886  97.2779 353.7159 0001098 103.8006 118.3670 16.02167837  2714
STARLINK-36368          
1 67887U 26035J   26061.91668981 -.00944171  30246-3 -16392-2 0  9994
2 67887  97.2778 353.7173 0001104 104.4232 121.0357 16.02280360  2660
STARLINK-36801          
1 67888U 26035K   26061.91668981 -.00941527  30133-3 -16226-2 0  9998
2 67888  97.2777 353.7186 0001041 103.1565 125.4577 16.02407135  2662
STARLINK-36372          
1 67889U 26035L   26061.91668981 -.00945683  30454-3 -16101-2 0  9994
2 67889  97.2772 353.7210 0001091 106.5990 128.0518 16.02615009  2665
STARLINK-36363          
1 67890U 26035M   26061.91668981 -.00949355  30641-3 -16250-2 0  9999
2 67890  97.2776 353.7203 0001137 107.8770 124.3253 16.02523915  2663
STARLINK-36816          
1 67891U 26035N   26061.91668981 -.01115413  42152-3 -17246-2 0  9997
2 67891  97.2748 353.7393 0000874  89.9153 190.6244 16.04270478  2554
STARLINK-36813          
1 67892U 26035P   26061.91668981 -.01068074  38589-3 -17191-2 0  9996
2 67892  97.2753 353.7305 0000996 106.5533 153.4825 16.03587917  2669
STARLINK-36803          
1 67893U 26035Q   26061.91668981 -.00943852  30394-3 -15942-2 0  9990
2 67893  97.2770 353.7224 0001068 110.7099 127.7819 16.02751756  2664
STARLINK-36846          
1 67894U 26035R   26061.91668981 -.00948321  30764-3 -15750-2 0  9995
2 67894  97.2768 353.7259 0001103 114.7774 131.5480 16.03038443  2663
STARLINK-36866          
1 67895U 26035S   26061.91668981 -.00957332  31357-3 -15779-2 0  9998
2 67895  97.2766 353.7272 0000988  90.6680 159.0565 16.03170049  2663
STARLINK-36877          
1 67896U 26035T   26061.91668981 -.00946883  30629-3 -15853-2 0  9992
2 67896  97.2768 353.7241 0000990  94.4162 148.1555 16.02901791  2665
STARLINK-36870          
1 67897U 26035U   26061.91668981 -.00990073  33437-3 -16165-2 0  9990
2 67897  97.2762 353.7286 0000989 111.8555 141.7743 16.03334555  2664
